{
  "type": "FeatureCollection",
  "features": [
    {
      "type": "Feature",
      "properties": {
        "norad_id": 28890,
        "name": "BEIJING 1",
        "group": "dmc",
        "lat": -65.90591143355553,
        "lon": 132.13562335087818,
        "alt_km": 698.7104781637718,
        "timestamp": "2025-12-11T15:53:39.208886+00:00",
        "meta_object_name": "BEIJING 1",
        "meta_object_id": "2005-043A",
        "meta_epoch": "2025-12-11T07:59:49.172064",
        "meta_mean_motion": 14.63364175,
        "meta_eccentricity": 0.00152254,
        "meta_inclination": 98.2656,
        "meta_ra_of_asc_node": 112.8365,
        "meta_arg_of_pericenter": 145.3745,
        "meta_mean_anomaly": 214.8451,
        "meta_ephemeris_type": 0,
        "meta_classification_type": "U",
        "meta_norad_cat_id": 28890,
        "meta_element_set_no": 999,
        "meta_rev_at_epoch": 7317,
        "meta_bstar": 0.00014716213,
        "meta_mean_motion_dot": 7.13e-06,
        "meta_mean_motion_ddot": 0,
        "tle_line1": "1 28890U 05043A   25345.33320801  .00000713  00000+0  14716-3 0  9990",
        "tle_line2": "2 28890  98.2656 112.8365 0015225 145.3745 214.8451 14.63364175 73178"
      },
      "geometry": {
        "type": "Point",
        "coordinates": [
          132.13562335087818,
          -65.90591143355553
        ]
      }
    },
    {
      "type": "Feature",
      "properties": {
        "norad_id": 33320,
        "name": "HUANJING 1A (HJ-1A)",
        "group": "dmc",
        "lat": -61.53395335761329,
        "lon": 139.64355226975673,
        "alt_km": 638.750018338088,
        "timestamp": "2025-12-11T15:53:39.208914+00:00",
        "meta_object_name": "HUANJING 1A (HJ-1A)",
        "meta_object_id": "2008-041A",
        "meta_epoch": "2025-12-11T06:42:36.715104",
        "meta_mean_motion": 14.8338928,
        "meta_eccentricity": 0.00203255,
        "meta_inclination": 97.6547,
        "meta_ra_of_asc_node": 333.6391,
        "meta_arg_of_pericenter": 39.0871,
        "meta_mean_anomaly": 321.1808,
        "meta_ephemeris_type": 0,
        "meta_classification_type": "U",
        "meta_norad_cat_id": 33320,
        "meta_element_set_no": 999,
        "meta_rev_at_epoch": 93054,
        "meta_bstar": 0.00039339924,
        "meta_mean_motion_dot": 3.188e-05,
        "meta_mean_motion_ddot": 0,
        "tle_line1": "1 33320U 08041A   25345.27959161  .00003188  00000+0  39340-3 0  9994",
        "tle_line2": "2 33320  97.6547 333.6391 0020325  39.0871 321.1808 14.83389280930549"
      },
      "geometry": {
        "type": "Point",
        "coordinates": [
          139.64355226975673,
          -61.53395335761329
        ]
      }
    },
    {
      "type": "Feature",
      "properties": {
        "norad_id": 33321,
        "name": "HUANJING 1B (HJ-1B)",
        "group": "dmc",
        "lat": 72.23558629781944,
        "lon": -177.52393674289442,
        "alt_km": 589.6404718425947,
        "timestamp": "2025-12-11T15:53:39.208929+00:00",
        "meta_object_name": "HUANJING 1B (HJ-1B)",
        "meta_object_id": "2008-041B",
        "meta_epoch": "2025-12-11T05:42:11.814336",
        "meta_mean_motion": 14.82814688,
        "meta_eccentricity": 0.00382714,
        "meta_inclination": 97.6403,
        "meta_ra_of_asc_node": 337.2996,
        "meta_arg_of_pericenter": 80.3328,
        "meta_mean_anomaly": 280.2206,
        "meta_ephemeris_type": 0,
        "meta_classification_type": "U",
        "meta_norad_cat_id": 33321,
        "meta_element_set_no": 999,
        "meta_rev_at_epoch": 93055,
        "meta_bstar": 0.00023348912,
        "meta_mean_motion_dot": 1.862e-05,
        "meta_mean_motion_ddot": 0,
        "tle_line1": "1 33321U 08041B   25345.23763674  .00001862  00000+0  23349-3 0  9992",
        "tle_line2": "2 33321  97.6403 337.2996 0038271  80.3328 280.2206 14.82814688930559"
      },
      "geometry": {
        "type": "Point",
        "coordinates": [
          -177.52393674289442,
          72.23558629781944
        ]
      }
    },
    {
      "type": "Feature",
      "properties": {
        "norad_id": 33446,
        "name": "YAOGAN-4",
        "group": "dmc",
        "lat": 17.826592004610156,
        "lon": -86.79306194236965,
        "alt_km": 615.2690682170132,
        "timestamp": "2025-12-11T15:53:39.208941+00:00",
        "meta_object_name": "YAOGAN-4",
        "meta_object_id": "2008-061A",
        "meta_epoch": "2025-12-11T06:05:43.265472",
        "meta_mean_motion": 14.82675923,
        "meta_eccentricity": 0.00136886,
        "meta_inclination": 97.918,
        "meta_ra_of_asc_node": 275.3679,
        "meta_arg_of_pericenter": 328.5714,
        "meta_mean_anomaly": 31.4681,
        "meta_ephemeris_type": 0,
        "meta_classification_type": "U",
        "meta_norad_cat_id": 33446,
        "meta_element_set_no": 999,
        "meta_rev_at_epoch": 91781,
        "meta_bstar": 0.00032167115,
        "meta_mean_motion_dot": 2.544e-05,
        "meta_mean_motion_ddot": 0,
        "tle_line1": "1 33446U 08061A   25345.25397298  .00002544  00000+0  32167-3 0  9995",
        "tle_line2": "2 33446  97.9180 275.3679 0013688 328.5714  31.4681 14.82675923917817"
      },
      "geometry": {
        "type": "Point",
        "coordinates": [
          -86.79306194236965,
          17.826592004610156
        ]
      }
    },
    {
      "type": "Feature",
      "properties": {
        "norad_id": 35681,
        "name": "DEIMOS-1",
        "group": "dmc",
        "lat": 2.061278837801698,
        "lon": -33.40504912301208,
        "alt_km": 648.3091482632644,
        "timestamp": "2025-12-11T15:53:39.208952+00:00",
        "meta_object_name": "DEIMOS-1",
        "meta_object_id": "2009-041A",
        "meta_epoch": "2025-12-11T06:57:00.348768",
        "meta_mean_motion": 14.74949272,
        "meta_eccentricity": 0.00027688,
        "meta_inclination": 97.7151,
        "meta_ra_of_asc_node": 145.9602,
        "meta_arg_of_pericenter": 81.5121,
        "meta_mean_anomaly": 278.6403,
        "meta_ephemeris_type": 0,
        "meta_classification_type": "U",
        "meta_norad_cat_id": 35681,
        "meta_element_set_no": 999,
        "meta_rev_at_epoch": 87918,
        "meta_bstar": 0.00019503998,
        "meta_mean_motion_dot": 1.263e-05,
        "meta_mean_motion_ddot": 0,
        "tle_line1": "1 35681U 09041A   25345.28958737  .00001263  00000+0  19504-3 0  9998",
        "tle_line2": "2 35681  97.7151 145.9602 0002768  81.5121 278.6403 14.74949272879185"
      },
      "geometry": {
        "type": "Point",
        "coordinates": [
          -33.40504912301208,
          2.061278837801698
        ]
      }
    },
    {
      "type": "Feature",
      "properties": {
        "norad_id": 35683,
        "name": "UK-DMC 2",
        "group": "dmc",
        "lat": -10.271489661737155,
        "lon": -60.838838196215036,
        "alt_km": 647.5088611447136,
        "timestamp": "2025-12-11T15:53:39.208963+00:00",
        "meta_object_name": "UK-DMC 2",
        "meta_object_id": "2009-041C",
        "meta_epoch": "2025-12-11T06:53:51.885312",
        "meta_mean_motion": 14.75617241,
        "meta_eccentricity": 0.00014179,
        "meta_inclination": 97.8563,
        "meta_ra_of_asc_node": 120.2308,
        "meta_arg_of_pericenter": 97.4592,
        "meta_mean_anomaly": 262.6778,
        "meta_ephemeris_type": 0,
        "meta_classification_type": "U",
        "meta_norad_cat_id": 35683,
        "meta_element_set_no": 999,
        "meta_rev_at_epoch": 87885,
        "meta_bstar": 0.0002720771,
        "meta_mean_motion_dot": 1.808e-05,
        "meta_mean_motion_ddot": 0,
        "tle_line1": "1 35683U 09041C   25345.28740608  .00001808  00000+0  27208-3 0  9991",
        "tle_line2": "2 35683  97.8563 120.2308 0001417  97.4592 262.6778 14.75617241878852"
      },
      "geometry": {
        "type": "Point",
        "coordinates": [
          -60.838838196215036,
          -10.271489661737155
        ]
      }
    },
    {
      "type": "Feature",
      "properties": {
        "norad_id": 40715,
        "name": "DMC3-FM1",
        "group": "dmc",
        "lat": -21.063988477147745,
        "lon": 29.918966691534244,
        "alt_km": 619.4836513454702,
        "timestamp": "2025-12-11T15:53:39.208974+00:00",
        "meta_object_name": "DMC3-FM1",
        "meta_object_id": "2015-032A",
        "meta_epoch": "2025-12-11T06:54:27.800928",
        "meta_mean_motion": 14.8543572,
        "meta_eccentricity": 0.00048014,
        "meta_inclination": 97.669,
        "meta_ra_of_asc_node": 212.5331,
        "meta_arg_of_pericenter": 327.8825,
        "meta_mean_anomaly": 32.2097,
        "meta_ephemeris_type": 0,
        "meta_classification_type": "U",
        "meta_norad_cat_id": 40715,
        "meta_element_set_no": 999,
        "meta_rev_at_epoch": 56201,
        "meta_bstar": 0.00011030941,
        "meta_mean_motion_dot": 8.99e-06,
        "meta_mean_motion_ddot": 0,
        "tle_line1": "1 40715U 15032A   25345.28782177  .00000899  00000+0  11031-3 0  9993",
        "tle_line2": "2 40715  97.6690 212.5331 0004801 327.8825  32.2097 14.85435720562017"
      },
      "geometry": {
        "type": "Point",
        "coordinates": [
          29.918966691534244,
          -21.063988477147745
        ]
      }
    },
    {
      "type": "Feature",
      "properties": {
        "norad_id": 40716,
        "name": "DMC3-FM2",
        "group": "dmc",
        "lat": 78.18182030933788,
        "lon": 174.2132922376038,
        "alt_km": 606.2594633237732,
        "timestamp": "2025-12-11T15:53:39.208984+00:00",
        "meta_object_name": "DMC3-FM2",
        "meta_object_id": "2015-032B",
        "meta_epoch": "2025-12-11T05:49:51.662784",
        "meta_mean_motion": 14.85435003,
        "meta_eccentricity": 0.00054827,
        "meta_inclination": 97.6745,
        "meta_ra_of_asc_node": 213.9326,
        "meta_arg_of_pericenter": 331.8704,
        "meta_mean_anomaly": 28.2214,
        "meta_ephemeris_type": 0,
        "meta_classification_type": "U",
        "meta_norad_cat_id": 40716,
        "meta_element_set_no": 999,
        "meta_rev_at_epoch": 56200,
        "meta_bstar": 8.8096435e-05,
        "meta_mean_motion_dot": 7.08e-06,
        "meta_mean_motion_ddot": 0,
        "tle_line1": "1 40716U 15032B   25345.24295906  .00000708  00000+0  88096-4 0  9994",
        "tle_line2": "2 40716  97.6745 213.9326 0005482 331.8704  28.2214 14.85435003562004"
      },
      "geometry": {
        "type": "Point",
        "coordinates": [
          174.2132922376038,
          78.18182030933788
        ]
      }
    },
    {
      "type": "Feature",
      "properties": {
        "norad_id": 40717,
        "name": "DMC3-FM3",
        "group": "dmc",
        "lat": -34.322701190018265,
        "lon": -138.7448071844318,
        "alt_km": 615.1925497256516,
        "timestamp": "2025-12-11T15:53:39.208994+00:00",
        "meta_object_name": "DMC3-FM3",
        "meta_object_id": "2015-032C",
        "meta_epoch": "2025-12-11T06:20:59.038080",
        "meta_mean_motion": 14.85426008,
        "meta_eccentricity": 0.00047708,
        "meta_inclination": 97.68,
        "meta_ra_of_asc_node": 215.5855,
        "meta_arg_of_pericenter": 333.9364,
        "meta_mean_anomaly": 26.1611,
        "meta_ephemeris_type": 0,
        "meta_classification_type": "U",
        "meta_norad_cat_id": 40717,
        "meta_element_set_no": 999,
        "meta_rev_at_epoch": 56201,
        "meta_bstar": 0.00012569145,
        "meta_mean_motion_dot": 1.031e-05,
        "meta_mean_motion_ddot": 0,
        "tle_line1": "1 40717U 15032C   25345.26457220  .00001031  00000+0  12569-3 0  9997",
        "tle_line2": "2 40717  97.6800 215.5855 0004770 333.9364  26.1611 14.85426008562010"
      },
      "geometry": {
        "type": "Point",
        "coordinates": [
          -138.7448071844318,
          -34.322701190018265
        ]
      }
    }
  ]
}